[
    {
        "Altitude(m)": 607911.0249842196,
        "Argument of Periapsis(deg)": 0.0,
        "Eccentricity": 0.0,
        "Inclination(deg)": 60.0,
        "Latitude(deg)": -14.293034136720483,
        "Longitude(deg)": -66.55734015270565,
        "Mean Anomaly(deg)": -163.63640000000004,
        "RAAN(deg)": 205.0,
        "Satellite Name": "Test1 914",
        "Satellite Number": 914,
        "Semi-Major Axis(m)": 6980739.136638005,
        "Time(s)": 0
    },
    {
        "Altitude(m)": 608060.2590755525,
        "Argument of Periapsis(deg)": 0.00010418945913296404,
        "Eccentricity": 0.0,
        "Inclination(deg)": 60.0,
        "Latitude(deg)": -14.826695285966194,
        "Longitude(deg)": -66.26873011318511,
        "Mean Anomaly(deg)": -163.0162938545382,
        "RAAN(deg)": 204.99957995086024,
        "Satellite Name": "Test1 914",
        "Satellite Number": 914,
        "Semi-Major Axis(m)": 6980739.136638005,
        "Time(s)": 10
    }
]